[{"OBJECT_NAME":"STARLINK-32517","OBJECT_ID":"2024-210X","EPOCH":"2026-03-09T08:24:05.555520","MEAN_MOTION":15.2757242,"ECCENTRICITY":0.00012331,"INCLINATION":42.9999,"RA_OF_ASC_NODE":182.1168,"ARG_OF_PERICENTER":267.538,"MEAN_ANOMALY":92.5331,"EPHEMERIS_TYPE":0,"CLASSIFICATION_TYPE":"U","NORAD_CAT_ID":61980,"ELEMENT_SET_NO":999,"REV_AT_EPOCH":7477,"BSTAR":0.0012058191,"MEAN_MOTION_DOT":0.00033061,"MEAN_MOTION_DDOT":0},{"OBJECT_NAME":"KUIPER-00204","OBJECT_ID":"2025-301N","EPOCH":"2026-03-09T09:32:32.981280","MEAN_MOTION":15.260884,"ECCENTRICITY":0.00030716,"INCLINATION":51.887,"RA_OF_ASC_NODE":71.6415,"ARG_OF_PERICENTER":354.8934,"MEAN_ANOMALY":5.2016,"EPHEMERIS_TYPE":0,"CLASSIFICATION_TYPE":"U","NORAD_CAT_ID":67145,"ELEMENT_SET_NO":999,"REV_AT_EPOCH":1373,"BSTAR":0.00079568218,"MEAN_MOTION_DOT":0.00020516,"MEAN_MOTION_DDOT":0}]
